[{"OBJECT_NAME":"TORO","OBJECT_ID":"2024-149BQ","EPOCH":"2026-03-09T19:04:49.617408","MEAN_MOTION":14.96013579,"ECCENTRICITY":0.00010195,"INCLINATION":97.6844,"RA_OF_ASC_NODE":145.3205,"ARG_OF_PERICENTER":86.2634,"MEAN_ANOMALY":273.8704,"EPHEMERIS_TYPE":0,"CLASSIFICATION_TYPE":"U","NORAD_CAT_ID":60530,"ELEMENT_SET_NO":999,"REV_AT_EPOCH":8509,"BSTAR":0.00024799107,"MEAN_MOTION_DOT":2.725e-5,"MEAN_MOTION_DDOT":0},{"OBJECT_NAME":"STARLINK-36163","OBJECT_ID":"2025-293F","EPOCH":"2026-03-09T19:16:57.465696","MEAN_MOTION":14.98323714,"ECCENTRICITY":0.00036157,"INCLINATION":70.0013,"RA_OF_ASC_NODE":94.2216,"ARG_OF_PERICENTER":273.6774,"MEAN_ANOMALY":86.3972,"EPHEMERIS_TYPE":0,"CLASSIFICATION_TYPE":"U","NORAD_CAT_ID":67008,"ELEMENT_SET_NO":999,"REV_AT_EPOCH":1490,"BSTAR":0.00020625941,"MEAN_MOTION_DOT":2.369e-5,"MEAN_MOTION_DDOT":0}]
