TORO                    
1 60530U 24149BQ  26068.79501870  .00002725  00000+0  24799-3 0  9992
2 60530  97.6844 145.3205 0001020  86.2634 273.8704 14.96013579 85094
STARLINK-36163          
1 67008U 25293F   26068.80344289  .00002369  00000+0  20626-3 0  9990
2 67008  70.0013  94.2216 0003616 273.6774  86.3972 14.98323714 14901
